CREATION_DATE,OBJECT_NAME,OBJECT_ID,EPOCH,MEAN_MOTION,ECCENTRICITY,INCLINATION,RA_OF_ASC_NODE,ARG_OF_PERICENTER,MEAN_ANOMALY,EPHEMERIS_TYPE,CLASSIFICATION_TYPE,NORAD_CAT_ID,ELEMENT_SET_NO,REV_AT_EPOCH,BSTAR,MEAN_MOTION_DOT,MEAN_MOTION_DDOT,SEMIMAJOR_AXIS,PERIOD,APOAPSIS,PERIAPSIS,OBJECT_TYPE,RCS_SIZE,COUNTRY_CODE,LAUNCH_DATE
2021-06-08T22:36:11,LEMUR 2 JENNYBARNA,2017-019C,2021-06-08T16:45:00.301824,15.36364325,0.0007945,51.6374,243.0868,157.2123,202.9214,0,U,42753,999,22383,0.00013976,0.00004651,0,6835.008,93.728,462.303,451.443,PAYLOAD,SMALL,US,4/18/2017
2021-06-08T22:26:11,LEMUR 2 ROBMOORE,2017-019D,2021-06-08T17:44:05.660160,15.33539301,0.0009037,51.6388,255.8321,150.2825,209.8672,0,U,42754,999,22369,0.00010696,0.00003147,0,6843.4,93.9,471.449,459.08,PAYLOAD,SMALL,US,4/18/2017
2021-06-08T22:36:11,LEMUR 2 SPIROVISION,2017-019E,2021-06-08T17:33:23.461056,15.3625629,0.0008472,51.6395,242.9089,159.2772,338.7449,0,U,42755,999,22375,0.000095607,0.00003046,0,6835.329,93.734,462.984,451.403,PAYLOAD,SMALL,US,4/18/2017
2021-06-08T22:36:11,HXMT,2017-034A,2021-06-08T17:16:57.492768,15.09195828,0.0007534,43.0169,241.0642,104.4091,35.1056,0,U,42758,999,21969,0.00002172,0.00000132,0,6916.793,95.415,543.869,533.447,PAYLOAD,LARGE,PRC,6/15/2017
2021-06-08T22:46:11,ZHUHAI-1 02,2017-034B,2021-06-08T16:57:48.727872,15.10219979,0.0007313,43.017,229.1682,109.6534,33.9643,0,U,42759,999,21982,0.000027067,0.00000229,0,6913.666,95.35,540.587,530.475,PAYLOAD,MEDIUM,PRC,6/15/2017
2021-06-08T22:46:11,NUSAT-3,2017-034C,2021-06-08T16:21:36.179136,15.10811314,0.0007083,43.0153,226.2835,137.1232,1.1537,0,U,42760,999,21986,0.000025637,0.00000211,0,6911.861,95.313,538.622,528.831,PAYLOAD,MEDIUM,ARGN,6/15/2017
2021-06-08T22:46:11,ZHUHAI-1 01,2017-034D,2021-06-08T16:46:13.701216,15.10306906,0.0007756,43.017,228.2762,112.2897,33.9073,0,U,42761,999,21982,0.000027555,0.00000237,0,6913.4,95.345,540.627,529.903,PAYLOAD,MEDIUM,PRC,6/15/2017
2021-06-08T22:56:10,UCLSAT,2017-036A,2021-06-08T14:21:31.907808,15.24834717,0.0010179,97.25,209.4361,199.9196,160.1646,0,U,42765,999,22023,0.000072069,0.00001722,0,6869.419,94.436,498.276,484.291,PAYLOAD,SMALL,UK,6/23/2017
2021-06-08T18:36:59,NIUSAT,2017-036B,2021-06-08T09:04:24.678624,15.22713545,0.0014347,97.2504,205.6674,201.2757,158.7885,0,U,42766,999,21983,0.000057909,0.00001285,0,6875.797,94.568,507.527,487.797,PAYLOAD,MEDIUM,IND,6/23/2017
2021-06-08T22:26:11,CARTOSAT 2E,2017-036C,2021-06-08T18:06:14.943168,15.19205511,0.0007182,97.5047,218.8238,234.3603,266.4985,0,U,42767,999,21962,0.000032734,0.0000062,0,6886.377,94.786,513.188,503.297,PAYLOAD,LARGE,IND,6/23/2017
2021-06-08T18:36:59,LITUANICASAT 2,2017-036D,2021-06-08T08:39:11.479392,15.26257081,0.0013455,97.2574,209.9779,190.4279,169.6683,0,U,42768,999,22008,0.00012905,0.0000328,0,6865.15,94.348,496.252,477.778,PAYLOAD,SMALL,LTU,6/23/2017
2021-06-08T18:36:59,CE-SAT 1,2017-036E,2021-06-08T15:33:50.825952,15.21549435,0.0013178,97.2471,204.4512,209.906,150.1425,0,U,42769,999,21973,0.000037445,0.00000778,0,6879.303,94.64,510.234,492.103,PAYLOAD,MEDIUM,JPN,6/23/2017
2021-06-08T18:36:59,LEMUR 2 SHAINAJOHL,2017-036G,2021-06-08T03:50:33.164448,15.24519967,0.0013153,97.2526,207.8536,196.0954,163.9868,0,U,42771,999,21989,0.000086571,0.00002064,0,6870.364,94.456,501.266,483.193,PAYLOAD,SMALL,US,6/23/2017
2021-06-08T18:36:59,LEMUR 2 XUENITERENCE,2017-036H,2021-06-08T02:16:36.100992,15.24716729,0.0012715,97.2504,207.8176,194.3916,165.6962,0,U,42772,999,21990,0.000072681,0.00001732,0,6869.773,94.444,500.373,482.903,PAYLOAD,SMALL,US,6/23/2017
2021-06-08T22:56:10,LEMUR 2 LUCYBRYCE,2017-036J,2021-06-08T17:44:36.213792,15.2401945,0.0012969,97.2576,209.1165,192.2648,167.8276,0,U,42773,999,22000,0.000074238,0.00001733,0,6871.868,94.487,502.646,484.821,PAYLOAD,SMALL,US,6/23/2017
2021-06-08T18:36:59,LEMUR 2 KUNGFOO,2017-036K,2021-06-08T05:12:22.801248,15.24704987,0.0012636,97.2527,208.2297,193.9608,166.1283,0,U,42774,999,21991,0.000087349,0.00002095,0,6869.808,94.444,500.354,482.993,PAYLOAD,SMALL,US,6/23/2017
2021-06-08T18:36:59,AALTO 1,2017-036L,2021-06-08T02:06:16.562016,15.22665015,0.0012832,97.2474,205.6416,200.948,159.1233,0,U,42775,999,21977,0.000039438,0.00000852,0,6875.943,94.571,506.631,488.985,PAYLOAD,SMALL,FIN,6/23/2017
2021-06-08T22:56:10,URSA MAIOR,2017-036M,2021-06-08T19:32:55.054176,15.22928249,0.0012722,97.2487,206.8037,197.4765,162.6036,0,U,42776,999,21990,0.000049858,0.00001104,0,6875.151,94.555,505.762,488.269,PAYLOAD,SMALL,IT,6/23/2017
2021-06-08T22:56:10,COMPASS 2,2017-036N,2021-06-08T20:31:12.394848,15.25661399,0.0011379,97.2556,210.6286,189.2388,170.8643,0,U,42777,999,22010,0.000094349,0.00002334,0,6866.937,94.385,496.616,480.988,PAYLOAD,SMALL,GER,6/23/2017
2021-06-08T18:36:59,MAX VALIER SAT,2017-036P,2021-06-08T08:55:35.897664,15.23589571,0.0011187,97.2554,208.2806,199.9398,160.1404,0,U,42778,999,21990,0.000056261,0.00001279,0,6873.161,94.514,502.715,487.337,PAYLOAD,MEDIUM,IT,6/23/2017
2021-06-08T18:36:59,LEMUR 2 LYNSEY-SYMO,2017-036Q,2021-06-08T09:23:42.029952,15.26377029,0.0010662,97.2576,211.395,193.0274,167.0691,0,U,42779,999,22010,0.00011178,0.00002839,0,6864.791,94.341,493.975,479.336,PAYLOAD,SMALL,US,6/23/2017
2021-06-08T18:36:59,LEMUR 2 LISASAURUS,2017-036R,2021-06-08T02:15:33.058368,15.24550117,0.0010776,97.2564,209.3671,199.8232,160.2589,0,U,42780,999,21996,0.000074625,0.0000177,0,6870.274,94.454,499.542,484.735,PAYLOAD,SMALL,US,6/23/2017
2021-06-08T18:36:59,LEMUR 2 SAM-AMELIA,2017-036S,2021-06-08T10:44:09.883104,15.24833551,0.00112,97.2577,210.4547,195.3747,164.7153,0,U,42781,999,22004,0.000079199,0.00001899,0,6869.422,94.437,498.981,483.594,PAYLOAD,SMALL,US,6/23/2017
2021-06-08T18:36:59,LEMUR 2 MCPEAKE,2017-036T,2021-06-08T08:56:19.953024,15.25687444,0.0010415,97.2546,210.5155,195.5717,164.5202,0,U,42782,999,22005,0.000082687,0.00002038,0,6866.859,94.384,495.876,481.572,PAYLOAD,SMALL,US,6/23/2017
2021-06-08T18:36:59,DIAMOND RED,2017-036U,2021-06-08T09:16:59.055168,15.23859661,0.0010832,97.2503,208.0796,205.5882,154.482,0,U,42783,999,21993,0.000056756,0.00001302,0,6872.349,94.497,501.658,486.77,PAYLOAD,SMALL,UK,6/23/2017
2021-06-08T22:16:10,PEGASUS,2017-036V,2021-06-08T16:58:05.327904,15.24410252,0.0010718,97.2507,209.0702,202.1341,157.9436,0,U,42784,999,22002,0.000068118,0.00001603,0,6870.694,94.463,499.923,485.195,PAYLOAD,SMALL,ASRA,6/23/2017
2021-06-08T18:36:59,DIAMOND GREEN,2017-036W,2021-06-08T02:56:17.553696,15.23866,0.0010673,97.2506,207.8727,207.0897,152.9785,0,U,42785,999,21996,0.000037035,0.00000826,0,6872.33,94.496,501.53,486.86,PAYLOAD,SMALL,UK,6/23/2017
2021-06-08T18:36:59,DIAMOND BLUE,2017-036X,2021-06-08T02:55:03.149472,15.23874978,0.0010522,97.2505,207.8646,207.3298,152.7387,0,U,42786,999,21996,0.000048615,0.00001106,0,6872.303,94.496,501.399,486.937,PAYLOAD,SMALL,UK,6/23/2017
2021-06-08T18:36:59,NUDTSAT,2017-036Y,2021-06-08T14:14:28.481280,15.26335792,0.000907,97.2551,211.3342,198.2562,161.8351,0,U,42787,999,21998,0.00010763,0.00002727,0,6864.914,94.344,493.006,480.553,PAYLOAD,SMALL,PRC,6/23/2017
2021-06-08T18:36:59,SUCHAI,2017-036Z,2021-06-08T02:52:58.441440,15.25193293,0.001026,97.2518,209.4783,200.6928,159.3897,0,U,42788,999,22006,0.000079865,0.00001937,0,6868.342,94.414,497.254,483.16,PAYLOAD,SMALL,CHLE,6/23/2017
2021-06-08T18:36:59,SKCUBE,2017-036AA,2021-06-08T01:58:08.549760,15.24930125,0.0010144,97.2511,209.1586,201.5694,158.5118,0,U,42789,999,21996,0.000061364,0.0000146,0,6869.132,94.431,497.965,484.029,PAYLOAD,SMALL,CZCH,6/23/2017
2021-06-08T18:36:59,VZLUSAT 1,2017-036AB,2021-06-08T03:04:53.692608,15.26303601,0.0009723,97.2543,210.8736,195.6098,164.4842,0,U,42790,999,22006,0.000083075,0.00002087,0,6865.011,94.346,493.551,480.201,PAYLOAD,SMALL,CZCH,6/23/2017
2021-06-08T18:36:59,VENTA 1,2017-036AC,2021-06-08T09:22:56.909280,15.24880704,0.0009865,97.2508,209.4731,200.7691,159.3148,0,U,42791,999,22000,0.000069598,0.00001663,0,6869.281,94.434,497.922,484.369,PAYLOAD,MEDIUM,CIS,6/23/2017
2021-06-08T22:16:10,ROBUSTA 1B,2017-036AD,2021-06-08T18:34:37.039584,15.25169153,0.0009801,97.2514,210.2047,198.4708,161.6176,0,U,42792,999,22010,0.000077456,0.00001875,0,6868.415,94.416,497.011,483.548,PAYLOAD,SMALL,FR,6/23/2017
2021-06-08T18:36:59,CICERO 6,2017-036AE,2021-06-08T04:06:51.457824,15.24067128,0.0009069,97.2486,208.4554,205.1453,154.9344,0,U,42793,999,22002,0.000052983,0.00001218,0,6871.725,94.484,499.822,487.358,PAYLOAD,MEDIUM,US,6/23/2017
2021-06-08T18:36:59,DSAT,2017-036AF,2021-06-08T12:04:31.482624,14.91571469,0.0123915,97.4612,179.8706,255.6864,103.0571,0,U,42794,999,21572,0.000013576,0.00000093,0,6971.172,96.542,679.42,506.654,PAYLOAD,SMALL,IT,6/23/2017
2021-06-08T18:36:59,TYVAK 53B,2017-036AG,2021-06-08T03:05:21.861600,15.26895346,0.0006151,97.2341,207.7023,12.5384,347.6007,0,U,42795,999,22008,0.00013217,0.00003421,0,6863.237,94.309,489.324,480.88,PAYLOAD,SMALL,US,6/23/2017
2021-06-08T22:16:10,COSMOS 2519,2017-037A,2021-06-08T18:38:50.346240,15.64077033,0.0124002,97.8551,311.7203,117.5331,243.8592,0,U,42798,999,21995,0.00036508,0.000511,3.02E-06,6754.032,92.067,459.648,292.145,PAYLOAD,LARGE,CIS,6/23/2017
2021-06-08T18:36:59,IRIDIUM 113,2017-039A,2021-06-08T07:52:46.644096,14.34220721,0.0001821,86.3984,8.8621,88.6027,271.5378,0,U,42803,999,20819,0.00002846,0.00000099,0,7155.794,100.403,778.962,776.356,PAYLOAD,LARGE,US,6/25/2017
2021-06-08T18:36:59,IRIDIUM 123,2017-039B,2021-06-08T03:51:06.902784,14.34216225,0.0002044,86.3992,40.4828,79.3804,280.7622,0,U,42804,999,20693,0.000029603,0.00000103,0,7155.809,100.403,779.137,776.212,PAYLOAD,LARGE,US,6/25/2017
2021-06-08T18:36:59,IRIDIUM 120,2017-039C,2021-06-08T07:43:38.692704,14.34215042,0.0001755,86.3972,8.8849,90.9166,269.2231,0,U,42805,999,20818,0.000030505,0.00000105,0,7155.813,100.403,778.934,776.422,PAYLOAD,LARGE,US,6/25/2017
2021-06-08T18:36:59,IRIDIUM 115,2017-039D,2021-06-08T11:39:42.938496,14.43280236,0.0002371,86.4511,8.6681,29.3018,330.8315,0,U,42806,999,20963,0.000027944,0.00000114,0,7125.818,99.773,749.373,745.994,PAYLOAD,LARGE,US,6/25/2017
